norad_id,name,regime,epoch,line1,line2,inclination,eccentricity,mean_motion,raan,arg_pericenter,mean_anomaly
44333,AT&T T-16,GEO,20171.68854550,1 44333U 19034A   20171.68854550 -.00000101 +00000-0 +00000-0 0 0001\,2 44333 000.0155 332.3239 0001050 007.8150 075.2491 01.0026784500369,0.0155,0.000105,1.00267845,332.3239,7.815,75.2491
44333,AT&T T-16,GEO,20172.04747466,1 44333U 19034A   20172.04747466 -.00000102  00000-0  00000+0 0  5151\,2 44333   0.0113 318.8788 0000674 350.8029 235.2785  1.00272310  3697,0.0113,6.74e-05,1.0027231,318.8788,350.8029,235.2785
44333,AT&T T-16,GEO,20172.20772233,1 44333U 19034A   20172.20772233 -.00000102  00000-0  00000+0 0  5160\,2 44333   0.0139 326.0924 0000645 334.3254 302.3894  1.00270863  3703,0.0139,6.45e-05,1.00270863,326.0924,334.3254,302.3894
44333,AT&T T-16,GEO,20172.98072891,1 44333U 19034A   20172.98072891 -.00000104  00000-0  00000+0 0  5171\,2 44333   0.0134 311.1749 0000829 356.3182 214.3653  1.00274804  3711,0.0134,8.29e-05,1.00274804,311.1749,356.3182,214.3653
44333,AT&T T-16,GEO,20173.52174917,1 44333U 19034A   20173.52174917 -.00000103 +00000-0 +00000-0 0 0001\,2 44333 000.0171 307.8394 0001062 026.6152 022.7064 01.0026774900371,0.0171,0.0001062,1.00267749,307.8394,26.6152,22.7064
44333,AT&T T-16,GEO,20173.60919656,1 44333U 19034A   20173.60919656 -.00000104  00000-0  00000+0 0  5181\,2 44333   0.0168 308.1434 0000930  27.8740  52.7111  1.00270006  3711,0.0168,9.3e-05,1.00270006,308.1434,27.874,52.7111
44333,AT&T T-16,GEO,20173.84207384,1 44333U 19034A   20173.84207384 -.00000104 +00000-0 +00000-0 0 0001\,2 44333 000.0165 308.7248 0000952 021.9998 142.0663 01.0026952600372,0.0165,9.52e-05,1.00269526,308.7248,21.9998,142.0663
44333,AT&T T-16,GEO,20174.06993810,1 44333U 19034A   20174.06993810 -.00000106  00000-0  00000+0 0  5199\,2 44333   0.0189 305.0723 0000775   4.4487 245.5304  1.00273184  3713,0.0189,7.75e-05,1.00273184,305.0723,4.4487,245.5304
44333,AT&T T-16,GEO,20174.42990515,1 44333U 19034A   20174.42990515 -.00000106  00000-0  00000+0 0  5200\,2 44333   0.0182 306.6182 0000591 345.7458  32.6253  1.00268602  3725,0.0182,5.91e-05,1.00268602,306.6182,345.7458,32.6253
44333,AT&T T-16,GEO,20174.84708108,1 44333U 19034A   20174.84708108 -.00000107 +00000-0 +00000-0 0 0001\,2 44333 000.0171 308.2089 0000591 342.0610 185.3087 01.0026840700373,0.0171,5.91e-05,1.00268407,308.2089,342.061,185.3087
44333,AT&T T-16,GEO,20175.24653187,1 44333U 19034A   20175.24653187 -.00000108 +00000-0 +00000-0 0 0001\,2 44333 000.0157 309.9722 0000563 342.5632 327.2349 01.0026848700373,0.0157,5.63e-05,1.00268487,309.9722,342.5632,327.2349
44333,AT&T T-16,GEO,20175.43367719,1 44333U 19034A   20175.43367719 -.00000108  00000-0  00000+0 0  5219\,2 44333   0.0151 311.6735 0000554 341.1070  34.5445  1.00268490  3730,0.0151,5.54e-05,1.0026849,311.6735,341.107,34.5445
44333,AT&T T-16,GEO,20175.60507832,1 44333U 19034A   20175.60507832 -.00000109 +00000-0 +00000-0 0 0001\,2 44333 000.0144 312.4846 0000548 340.4412 096.2704 01.0026843900373,0.0144,5.48e-05,1.00268439,312.4846,340.4412,96.2704
44333,AT&T T-16,GEO,20176.52662721,1 44333U 19034A   20176.52662721 -.00000111  00000-0  00000+0 0  5226\,2 44333   0.0112 317.5487 0000498 329.5680  74.7337  1.00268226  3744,0.0112,4.98e-05,1.00268226,317.5487,329.568,74.7337
44333,AT&T T-16,GEO,20176.64167146,1 44333U 19034A   20176.64167146 -.00000111 +00000-0 +00000-0 0 0001\,2 44333 000.0110 318.5984 0000507 332.1298 112.6503 01.0026824200374,0.011,5.07e-05,1.00268242,318.5984,332.1298,112.6503
44333,AT&T T-16,GEO,20177.08809762,1 44333U 19034A   20177.08809762 -.00000113  00000-0  00000+0 0  5239\,2 44333   0.0147 330.9400 0000463 323.8243 269.7684  1.00270988  3749,0.0147,4.63e-05,1.00270988,330.94,323.8243,269.7684
44333,AT&T T-16,GEO,20177.51937973,1 44333U 19034A   20177.51937973 -.00000114 +00000-0 +00000-0 0 0001\,2 44333 000.0120 315.7288 0000610 036.9112 007.5845 01.0027484800375,0.012,6.1e-05,1.00274848,315.7288,36.9112,7.5845
44333,AT&T T-16,GEO,20177.64645111,1 44333U 19034A   20177.64645111 -.00000114  00000-0  00000+0 0  5249\,2 44333   0.0116 316.9455 0000748  26.0366  63.1113  1.00271267  3758,0.0116,7.48e-05,1.00271267,316.9455,26.0366,63.1113
44333,AT&T T-16,GEO,20178.39493743,1 44333U 19034A   20178.39493743 -.00000116  00000-0  00000+0 0  5257\,2 44333   0.0128 313.5571 0000466  36.5064 326.2263  1.00274290  3760,0.0128,4.66e-05,1.0027429,313.5571,36.5064,326.2263
44333,AT&T T-16,GEO,20178.65143022,1 44333U 19034A   20178.65143022 -.00000116 +00000-0 +00000-0 0 0001\,2 44333 000.0154 309.3557 0000752 036.5580 062.9682 01.0027250900376,0.0154,7.52e-05,1.00272509,309.3557,36.558,62.9682
44333,AT&T T-16,GEO,20179.04602177,1 44333U 19034A   20179.04602177 -.00000117 +00000-0 +00000-0 0 0001\,2 44333 000.0143 311.5494 0000747 031.5241 208.2513 01.0027267300377,0.0143,7.47e-05,1.00272673,311.5494,31.5241,208.2513
44333,AT&T T-16,GEO,20179.65638054,1 44333U 19034A   20179.65638054 -.00000117  00000-0  00000+0 0  5276\,2 44333   0.0186 302.1284 0000930  51.3698  58.1593  1.00269829  3773,0.0186,9.3e-05,1.00269829,302.1284,51.3698,58.1593
44333,AT&T T-16,GEO,20180.07052892,1 44333U 19034A   20180.07052892 -.00000118  00000-0  00000+0 0  5286\,2 44333   0.0174 304.8405 0000761  43.2266 213.0929  1.00272075  3779,0.0174,7.61e-05,1.00272075,304.8405,43.2266,213.0929
44333,AT&T T-16,GEO,20180.33568531,1 44333U 19034A   20180.33568531 -.00000118  00000-0  00000+0 0  5298\,2 44333   0.0196 299.7608 0000548  42.0534 315.0619  1.00269652  3774,0.0196,5.48e-05,1.00269652,299.7608,42.0534,315.0619
44333,AT&T T-16,GEO,20180.66135323,1 44333U 19034A   20180.66135323 -.00000118 +00000-0 +00000-0 0 0001\,2 44333 000.0218 297.6192 0001087 058.8615 057.9593 01.0026843400378,0.0218,0.0001087,1.00268434,297.6192,58.8615,57.9593
44333,AT&T T-16,GEO,20180.94851234,1 44333U 19034A   20180.94851234 -.00000118  00000-0  00000+0 0  5302\,2 44333   0.0209 299.1782 0000957  58.8746 160.0470  1.00270326  3784,0.0209,9.57e-05,1.00270326,299.1782,58.8746,160.047
44333,AT&T T-16,GEO,20181.23117225,1 44333U 19034A   20181.23117225 -.00000117 +00000-0 +00000-0 0 0001\,2 44333 000.0226 297.5828 0000334 052.6110 269.9385 01.0026457300379,0.0226,3.34e-05,1.00264573,297.5828,52.611,269.9385
44333,AT&T T-16,GEO,20182.07479917,1 44333U 19034A   20182.07479917 -.00000119  00000-0  00000+0 0  5314\,2 44333   0.0196 301.7936 0000508  52.3047 210.5648  1.00268545  3794,0.0196,5.08e-05,1.00268545,301.7936,52.3047,210.5648
44333,AT&T T-16,GEO,20182.58850025,1 44333U 19034A   20182.58850025 -.00000119 +00000-0 +00000-0 0 0001\,2 44333 000.0177 304.9331 0000453 050.6784 034.4843 01.0026850100380,0.0177,4.53e-05,1.00268501,304.9331,50.6784,34.4843
44333,AT&T T-16,GEO,20182.67129292,1 44333U 19034A   20182.67129292 -.00000119 +00000-0 +00000-0 0 0001\,2 44333 000.0175 304.9246 0000444 051.0848 063.9723 01.0026849600380,0.0175,4.44e-05,1.00268496,304.9246,51.0848,63.9723
44333,AT&T T-16,GEO,20183.10197605,1 44333U 19034A   20183.10197605 -.00000120  00000-0  00000+0 0  5323\,2 44333   0.0156 308.1656 0000416  52.6055 214.6759  1.00268512  3804,0.0156,4.16e-05,1.00268512,308.1656,52.6055,214.6759
44333,AT&T T-16,GEO,20183.51627767,1 44333U 19034A   20183.51627767 -.00000120 +00000-0 +00000-0 0 0001\,2 44333 000.0140 312.4718 0000374 049.5026 003.0251 01.0026851800381,0.014,3.74e-05,1.00268518,312.4718,49.5026,3.0251
44333,AT&T T-16,GEO,20183.81985365,1 44333U 19034A   20183.81985365 -.00000120 +00000-0 +00000-0 0 0001\,2 44333 000.0132 313.3277 0000409 053.5807 107.6740 01.0026857500382,0.0132,4.09e-05,1.00268575,313.3277,53.5807,107.674
44333,AT&T T-16,GEO,20184.10696192,1 44333U 19034A   20184.10696192 -.00000121  00000-0  00000+0 0  5331\,2 44333   0.0115 317.1180 0000339  74.2286 186.8794  1.00270346  3819,0.0115,3.39e-05,1.00270346,317.118,74.2286,186.8794
44333,AT&T T-16,GEO,20185.04018865,1 44333U 19034A   20185.04018865 -.00000123  00000-0  00000+0 0  5354\,2 44333   0.0121 325.1350 0000528  59.5853 170.3907  1.00272163  3824,0.0121,5.28e-05,1.00272163,325.135,59.5853,170.3907
44333,AT&T T-16,GEO,20185.51574240,1 44333U 19034A   20185.51574240 -.00000124  00000-0  00000+0 0  5362\,2 44333   0.0131 316.3833 0000614  79.5277 330.8725  1.00273935  3831,0.0131,6.14e-05,1.00273935,316.3833,79.5277,330.8725
44333,AT&T T-16,GEO,20185.68613980,1 44333U 19034A   20185.68613980 -.00000124  00000-0  00000+0 0  5376\,2 44333   0.0130 316.6381 0000605  66.7631  44.8917  1.00271747  3837,0.013,6.05e-05,1.00271747,316.6381,66.7631,44.8917
44333,AT&T T-16,GEO,20186.52390226,1 44333U 19034A   20186.52390226 -.00000125 +00000-0 +00000-0 0 0001\,2 44333 000.0139 316.4053 0000567 080.0905 334.2213 01.0027386700384,0.0139,5.67e-05,1.00273867,316.4053,80.0905,334.2213
44333,AT&T T-16,GEO,20186.69112941,1 44333U 19034A   20186.69112941 -.00000125  00000-0  00000+0 0  5381\,2 44333   0.0140 316.1325 0000556  74.8535  40.0979  1.00273090  3849,0.014,5.56e-05,1.0027309,316.1325,74.8535,40.0979
44333,AT&T T-16,GEO,20186.83471977,1 44333U 19034A   20186.83471977 -.00000125 +00000-0 +00000-0 0 0001\,2 44333 000.0136 317.3416 0000560 067.9022 097.6733 01.0027225400385,0.0136,5.6e-05,1.00272254,317.3416,67.9022,97.6733
44333,AT&T T-16,GEO,20187.12185862,1 44333U 19034A   20187.12185862 -.00000126  00000-0  00000+0 0  5394\,2 44333   0.0149 315.8113 0000356  79.9161 190.8429  1.00270143  3848,0.0149,3.56e-05,1.00270143,315.8113,79.9161,190.8429
44333,AT&T T-16,GEO,20187.42304400,1 44333U 19034A   20187.42304400 -.00000126  00000-0  00000+0 0  5400\,2 44333   0.0152 314.3293 0000563  78.7572 302.2095  1.00273332  3849,0.0152,5.63e-05,1.00273332,314.3293,78.7572,302.2095
44333,AT&T T-16,GEO,20187.69604269,1 44333U 19034A   20187.69604269 -.00000127  00000-0  00000+0 0  5417\,2 44333   0.0162 313.3591 0000409  65.5877  54.8999  1.00275830  3850,0.0162,4.09e-05,1.0027583,313.3591,65.5877,54.8999
